47266,ONEWEB-0120,2020,109.72,148.0,+,87.89,Active,1,LEO,Russia,UK,Commercial,Communications,Soyuz,1 47266U 20100J   24280.10695507 -.00000386  00000+0 -11083-2 0  9990,2 47266  87.8851 113.9744 0001685  79.3123 280.8195 13.12440152183523,13.12440152,0.0001685,LEO
47267,ONEWEB-0121,2020,109.72,148.0,+,87.88,Active,1,LEO,Russia,UK,Commercial,Communications,Soyuz,1 47267U 20100K   24280.47666401 -.00003854  00000+0 -10750-1 0  9994,2 47267  87.8844 113.8856 0001579  60.4778 299.6508 13.12461337183487,13.12461337,0.0001579,LEO
47268,ONEWEB-0122,2020,109.72,148.0,+,87.88,Active,1,LEO,Russia,UK,Commercial,Communications,Soyuz,1 47268U 20100L   24280.54790377  .00000123  00000+0  30598-3 0  9991,2 47268  87.8847 113.8763 0001733  83.4318 276.7008 13.12442146183405,13.12442146,0.0001733,LEO
47269,ONEWEB-0123,2020,109.72,148.0,+,87.88,Active,1,LEO,Russia,UK,Commercial,Communications,Soyuz,1 47269U 20100M   24280.54318000  .00000325  00000+0  86669-3 0  9995,2 47269  87.8848 113.8949 0001558  81.0714 279.0591 13.12442103183543,13.12442103,0.0001558,LEO
47270,ONEWEB-0124,2020,109.72,148.0,+,87.88,Active,1,LEO,Russia,UK,Commercial,Communications,Soyuz,1 47270U 20100N   24280.53183177  .00000455  00000+0  12306-2 0  9991,2 47270  87.8850 113.8940 0001645  93.1240 267.0077 13.12442839183423,13.12442839,0.0001645,LEO
47271,ONEWEB-0125,2020,109.72,148.0,+,87.89,Active,1,LEO,Russia,UK,Commercial,Communications,Soyuz,1 47271U 20100P   24280.28040354  .00000038  00000+0  70635-4 0  9991,2 47271  87.8853 113.9046 0001260  85.3492 274.7780 13.12445121183456,13.12445121,0.000126,LEO
47272,ONEWEB-0126,2020,109.72,148.0,+,87.88,Active,1,LEO,Russia,UK,Commercial,Communications,Soyuz,1 47272U 20100Q   24280.53426380  .00000437  00000+0  11798-2 0  9993,2 47272  87.8847 113.8558 0001657  78.7650 281.3665 13.12441760183551,13.1244176,0.0001657,LEO
47273,ONEWEB-0127,2020,109.72,148.0,+,87.89,Active,1,LEO,Russia,UK,Commercial,Communications,Soyuz,1 47273U 20100R   24280.26740532 -.00000305  00000+0 -88280-3 0  9999,2 47273  87.8850 113.9408 0001709  82.2685 277.8638 13.12442417183546,13.12442417,0.0001709,LEO
